[{"OBJECT_NAME":"STARLINK-36182","OBJECT_ID":"2025-304A","EPOCH":"2026-03-09T16:24:16.808832","MEAN_MOTION":14.98330411,"ECCENTRICITY":0.00038051,"INCLINATION":70.0026,"RA_OF_ASC_NODE":174.4842,"ARG_OF_PERICENTER":265.7123,"MEAN_ANOMALY":94.3601,"EPHEMERIS_TYPE":0,"CLASSIFICATION_TYPE":"U","NORAD_CAT_ID":67192,"ELEMENT_SET_NO":999,"REV_AT_EPOCH":1385,"BSTAR":0.00028103913,"MEAN_MOTION_DOT":3.262e-5,"MEAN_MOTION_DDOT":0},{"OBJECT_NAME":"COSMOS 2251 DEB","OBJECT_ID":"1993-036AWS","EPOCH":"2026-03-08T21:06:04.726368","MEAN_MOTION":14.95261151,"ECCENTRICITY":0.00284276,"INCLINATION":73.9951,"RA_OF_ASC_NODE":273.3001,"ARG_OF_PERICENTER":6.025,"MEAN_ANOMALY":354.1269,"EPHEMERIS_TYPE":0,"CLASSIFICATION_TYPE":"U","NORAD_CAT_ID":36000,"ELEMENT_SET_NO":999,"REV_AT_EPOCH":61455,"BSTAR":0.0026863031,"MEAN_MOTION_DOT":0.00029903,"MEAN_MOTION_DDOT":0}]
